{"type": "FeatureCollection", "features": [ {"type": "Feature", "properties": {"norad_id": 66696, "name": "IRIDE FM2", "group": "last-30-days", "lat": -12.234366588867362, "lon": -114.41180912503913, "alt_km": 518.0757680348606, "timestamp": "2025-12-21T14:40:46.633338+00:00", "meta": {"OBJECT_NAME": "IRIDE FM2", "OBJECT_ID": "2025-276AG", "EPOCH": "2025-12-21T04:20:19.757472", "MEAN_MOTION": 15.17383599, "ECCENTRICITY": 0.00024663, "INCLINATION": 97.4397, "RA_OF_ASC_NODE": 66.7887, "ARG_OF_PERICENTER": 277.4863, "MEAN_ANOMALY": 82.609, "EPHEMERIS_TYPE": 0, "CLASSIFICATION_TYPE": "U", "NORAD_CAT_ID": 66696, "ELEMENT_SET_NO": 999, "REV_AT_EPOCH": 340, "BSTAR": 0.00036457138, "MEAN_MOTION_DOT": 7.219e-05, "MEAN_MOTION_DDOT": 0}, "tle": {"line1": "1 66696U 25276AG  25355.18078423  .00007219  00000+0  36457-3 0  9994", "line2": "2 66696  97.4397  66.7887 0002466 277.4863  82.6090 15.17383599  3404"}}, "geometry": {"type": "Point", "coordinates": [-114.41180912503913, -12.234366588867362]}}, {"type": "Feature", "properties": {"norad_id": 66697, "name": "IRIDE FM3", "group": "last-30-days", "lat": -71.97829622385646, "lon": -136.44258141717106, "alt_km": 518.8685117564783, "timestamp": "2025-12-21T14:40:46.633348+00:00", "meta": {"OBJECT_NAME": "IRIDE FM3", "OBJECT_ID": "2025-276AH", "EPOCH": "2025-12-21T05:39:24.622560", "MEAN_MOTION": 15.18133319, "ECCENTRICITY": 0.00010795, "INCLINATION": 97.4395, "RA_OF_ASC_NODE": 66.8686, "ARG_OF_PERICENTER": 158.0949, "MEAN_ANOMALY": 202.0331, "EPHEMERIS_TYPE": 0, "CLASSIFICATION_TYPE": "U", "NORAD_CAT_ID": 66697, "ELEMENT_SET_NO": 999, "REV_AT_EPOCH": 341, "BSTAR": 0.0004062227, "MEAN_MOTION_DOT": 8.227e-05, "MEAN_MOTION_DDOT": 0}, "tle": {"line1": "1 66697U 25276AH  25355.23570165  .00008227  00000+0  40622-3 0  9990", "line2": "2 66697  97.4395  66.8686 0001079 158.0949 202.0331 15.18133319  3410"}}, "geometry": {"type": "Point", "coordinates": [-136.44258141717106, -71.97829622385646]}}, {"type": "Feature", "properties": {"norad_id": 66698, "name": "IRIDE FM4", "group": "last-30-days", "lat": -7.844616505307922, "lon": -113.8208460346657, "alt_km": 517.6607672034634, "timestamp": "2025-12-21T14:40:46.633360+00:00", "meta": {"OBJECT_NAME": "IRIDE FM4", "OBJECT_ID": "2025-276AJ", "EPOCH": "2025-12-21T04:21:27.981504", "MEAN_MOTION": 15.17309742, "ECCENTRICITY": 0.00026515, "INCLINATION": 97.4396, "RA_OF_ASC_NODE": 66.7884, "ARG_OF_PERICENTER": 268.4852, "MEAN_ANOMALY": 91.6077, "EPHEMERIS_TYPE": 0, "CLASSIFICATION_TYPE": "U", "NORAD_CAT_ID": 66698, "ELEMENT_SET_NO": 999, "REV_AT_EPOCH": 340, "BSTAR": 0.00036711688, "MEAN_MOTION_DOT": 7.254e-05, "MEAN_MOTION_DDOT": 0}, "tle": {"line1": "1 66698U 25276AJ  25355.18157386  .00007254  00000+0  36712-3 0  9995", "line2": "2 66698  97.4396  66.7884 0002651 268.4852  91.6077 15.17309742  3409"}}, "geometry": {"type": "Point", "coordinates": [-113.8208460346657, -7.844616505307922]}}, {"type": "Feature", "properties": {"norad_id": 66699, "name": "IRIDE FM5", "group": "last-30-days", "lat": -9.05565988884793, "lon": -113.97739495923709, "alt_km": 516.2653698455761, "timestamp": "2025-12-21T14:40:46.633370+00:00", "meta": {"OBJECT_NAME": "IRIDE FM5", "OBJECT_ID": "2025-276AK", "EPOCH": "2025-12-21T04:21:13.303872", "MEAN_MOTION": 15.17461145, "ECCENTRICITY": 0.0002745, "INCLINATION": 97.4392, "RA_OF_ASC_NODE": 66.7933, "ARG_OF_PERICENTER": 240.6897, "MEAN_ANOMALY": 119.4063, "EPHEMERIS_TYPE": 0, "CLASSIFICATION_TYPE": "U", "NORAD_CAT_ID": 66699, "ELEMENT_SET_NO": 999, "REV_AT_EPOCH": 340, "BSTAR": 0.0042401689, "MEAN_MOTION_DOT": 0.00085765, "MEAN_MOTION_DDOT": 0}, "tle": {"line1": "1 66699U 25276AK  25355.18140398  .00085765  00000+0  42402-2 0  9996", "line2": "2 66699  97.4392  66.7933 0002745 240.6897 119.4063 15.17461145  3406"}}, "geometry": {"type": "Point", "coordinates": [-113.97739495923709, -9.05565988884793]}}, {"type": "Feature", "properties": {"norad_id": 66700, "name": "IRIDE FM6", "group": "last-30-days", "lat": -74.81336084576287, "lon": -141.54174932502104, "alt_km": 518.652485984242, "timestamp": "2025-12-21T14:40:46.633380+00:00", "meta": {"OBJECT_NAME": "IRIDE FM6", "OBJECT_ID": "2025-276AL", "EPOCH": "2025-12-21T04:03:40.664160", "MEAN_MOTION": 15.18185075, "ECCENTRICITY": 0.00015009, "INCLINATION": 97.443, "RA_OF_ASC_NODE": 66.814, "ARG_OF_PERICENTER": 167.5914, "MEAN_ANOMALY": 192.5357, "EPHEMERIS_TYPE": 0, "CLASSIFICATION_TYPE": "U", "NORAD_CAT_ID": 66700, "ELEMENT_SET_NO": 999, "REV_AT_EPOCH": 340, "BSTAR": 0.00040226485, "MEAN_MOTION_DOT": 8.159e-05, "MEAN_MOTION_DDOT": 0}, "tle": {"line1": "1 66700U 25276AL  25355.16922065  .00008159  00000+0  40226-3 0  9991", "line2": "2 66700  97.4430  66.8140 0001500 167.5914 192.5357 15.18185075  3402"}}, "geometry": {"type": "Point", "coordinates": [-141.54174932502104, -74.81336084576287]}}, {"type": "Feature", "properties": {"norad_id": 66701, "name": "IRIDE FM7", "group": "last-30-days", "lat": -8.644469140884315, "lon": -113.91822248242357, "alt_km": 517.4326236426841, "timestamp": "2025-12-21T14:40:46.633390+00:00", "meta": {"OBJECT_NAME": "IRIDE FM7", "OBJECT_ID": "2025-276AM", "EPOCH": "2025-12-21T05:56:13.823808", "MEAN_MOTION": 15.17348521, "ECCENTRICITY": 0.00029516, "INCLINATION": 97.4428, "RA_OF_ASC_NODE": 66.8627, "ARG_OF_PERICENTER": 264.333, "MEAN_ANOMALY": 95.7567, "EPHEMERIS_TYPE": 0, "CLASSIFICATION_TYPE": "U", "NORAD_CAT_ID": 66701, "ELEMENT_SET_NO": 999, "REV_AT_EPOCH": 341, "BSTAR": 0.00041194612, "MEAN_MOTION_DOT": 8.158e-05, "MEAN_MOTION_DDOT": 0}, "tle": {"line1": "1 66701U 25276AM  25355.24738222  .00008158  00000+0  41195-3 0  9996", "line2": "2 66701  97.4428  66.8627 0002951 264.3330  95.7567 15.17348521  3413"}}, "geometry": {"type": "Point", "coordinates": [-113.91822248242357, -8.644469140884315]}}, {"type": "Feature", "properties": {"norad_id": 66702, "name": "IRIDE FM8", "group": "last-30-days", "lat": -9.563345880543807, "lon": -114.04794787275037, "alt_km": 517.78427833757, "timestamp": "2025-12-21T14:40:46.633405+00:00", "meta": {"OBJECT_NAME": "IRIDE FM8", "OBJECT_ID": "2025-276AN", "EPOCH": "2025-12-21T04:21:01.619136", "MEAN_MOTION": 15.17356407, "ECCENTRICITY": 0.00028008, "INCLINATION": 97.4406, "RA_OF_ASC_NODE": 66.791, "ARG_OF_PERICENTER": 272.9053, "MEAN_ANOMALY": 87.186, "EPHEMERIS_TYPE": 0, "CLASSIFICATION_TYPE": "U", "NORAD_CAT_ID": 66702, "ELEMENT_SET_NO": 999, "REV_AT_EPOCH": 340, "BSTAR": 0.00033509226, "MEAN_MOTION_DOT": 6.624e-05, "MEAN_MOTION_DDOT": 0}, "tle": {"line1": "1 66702U 25276AN  25355.18126874  .00006624  00000+0  33509-3 0  9990", "line2": "2 66702  97.4406  66.7910 0002800 272.9053  87.1860 15.17356407  3406"}}, "geometry": {"type": "Point", "coordinates": [-114.04794787275037, -9.563345880543807]}}, {"type": "Feature", "properties": {"norad_id": 66703, "name": "PELICAN-6", "group": "last-30-days", "lat": -16.786983123030996, "lon": -115.04126093598538, "alt_km": 518.5596102844911, "timestamp": "2025-12-21T14:40:46.633417+00:00", "meta": {"OBJECT_NAME": "PELICAN-6", "OBJECT_ID": "2025-276AP", "EPOCH": "2025-12-21T04:19:06.092832", "MEAN_MOTION": 15.17323097, "ECCENTRICITY": 9.382e-05, "INCLINATION": 97.4418, "RA_OF_ASC_NODE": 66.7945, "ARG_OF_PERICENTER": 256.328, "MEAN_ANOMALY": 103.7849, "EPHEMERIS_TYPE": 0, "CLASSIFICATION_TYPE": "U", "NORAD_CAT_ID": 66703, "ELEMENT_SET_NO": 999, "REV_AT_EPOCH": 340, "BSTAR": 0.00024654625, "MEAN_MOTION_DOT": 4.85e-05, "MEAN_MOTION_DDOT": 0}, "tle": {"line1": "1 66703U 25276AP  25355.17993163  .00004850  00000+0  24655-3 0  9994", "line2": "2 66703  97.4418  66.7945 0000938 256.3280 103.7849 15.17323097  3407"}}, "geometry": {"type": "Point", "coordinates": [-115.04126093598538, -16.786983123030996]}}, {"type": "Feature", "properties": {"norad_id": 66704, "name": "FLOCK 4H-1", "group": "last-30-days", "lat": -68.17520845524689, "lon": -131.81038798964664, "alt_km": 518.6564360910043, "timestamp": "2025-12-21T14:40:46.633428+00:00", "meta": {"OBJECT_NAME": "FLOCK 4H-1", "OBJECT_ID": "2025-276AQ", "EPOCH": "2025-12-21T05:40:28.280352", "MEAN_MOTION": 15.18056537, "ECCENTRICITY": 0.00017484, "INCLINATION": 97.439, "RA_OF_ASC_NODE": 66.863, "ARG_OF_PERICENTER": 176.4455, "MEAN_ANOMALY": 183.6792, "EPHEMERIS_TYPE": 0, "CLASSIFICATION_TYPE": "U", "NORAD_CAT_ID": 66704, "ELEMENT_SET_NO": 999, "REV_AT_EPOCH": 341, "BSTAR": 0.00032888359, "MEAN_MOTION_DOT": 6.632e-05, "MEAN_MOTION_DDOT": 0}, "tle": {"line1": "1 66704U 25276AQ  25355.23643843  .00006632  00000+0  32888-3 0  9996", "line2": "2 66704  97.4390  66.8630 0001748 176.4455 183.6792 15.18056537  3413"}}, "geometry": {"type": "Point", "coordinates": [-131.81038798964664, -68.17520845524689]}}, {"type": "Feature", "properties": {"norad_id": 66705, "name": "FLOCK 4H-2", "group": "last-30-days", "lat": -70.3170252734847, "lon": -134.188558536352, "alt_km": 518.8356862475466, "timestamp": "2025-12-21T14:40:46.633438+00:00", "meta": {"OBJECT_NAME": "FLOCK 4H-2", "OBJECT_ID": "2025-276AR", "EPOCH": "2025-12-21T05:39:52.869312", "MEAN_MOTION": 15.18109186, "ECCENTRICITY": 0.00011465, "INCLINATION": 97.4384, "RA_OF_ASC_NODE": 66.8641, "ARG_OF_PERICENTER": 163.4195, "MEAN_ANOMALY": 196.7077, "EPHEMERIS_TYPE": 0, "CLASSIFICATION_TYPE": "U", "NORAD_CAT_ID": 66705, "ELEMENT_SET_NO": 999, "REV_AT_EPOCH": 341, "BSTAR": 0.0003930964, "MEAN_MOTION_DOT": 7.953e-05, "MEAN_MOTION_DDOT": 0}, "tle": {"line1": "1 66705U 25276AR  25355.23602858  .00007953  00000+0  39310-3 0  9992", "line2": "2 66705  97.4384  66.8641 0001146 163.4195 196.7077 15.18109186  3418"}}, "geometry": {"type": "Point", "coordinates": [-134.188558536352, -70.3170252734847]}}]}